[{"OBJECT_NAME":"YAOGAN-4","OBJECT_ID":"2008-061A","EPOCH":"2026-03-09T17:16:46.672032","MEAN_MOTION":14.82978423,"ECCENTRICITY":0.00153383,"INCLINATION":97.9248,"RA_OF_ASC_NODE":3.0166,"ARG_OF_PERICENTER":39.2204,"MEAN_ANOMALY":321.0118,"EPHEMERIS_TYPE":0,"CLASSIFICATION_TYPE":"U","NORAD_CAT_ID":33446,"ELEMENT_SET_NO":999,"REV_AT_EPOCH":93092,"BSTAR":0.00022773961,"MEAN_MOTION_DOT":1.799e-5,"MEAN_MOTION_DDOT":0},{"OBJECT_NAME":"CZ-4B DEB","OBJECT_ID":"1999-057FJ","EPOCH":"2026-03-09T05:48:40.255776","MEAN_MOTION":14.80940909,"ECCENTRICITY":0.00504445,"INCLINATION":98.2659,"RA_OF_ASC_NODE":157.034,"ARG_OF_PERICENTER":47.8855,"MEAN_ANOMALY":11.6615,"EPHEMERIS_TYPE":0,"CLASSIFICATION_TYPE":"U","NORAD_CAT_ID":26272,"ELEMENT_SET_NO":999,"REV_AT_EPOCH":37406,"BSTAR":0.0011714094,"MEAN_MOTION_DOT":9.212e-5,"MEAN_MOTION_DDOT":0}]
